KUIPER-00053            
1 64513U 25134P   26002.59696574  .00011015  00000+0  14715-2 0  9992
2 64513  51.9011 155.3504 0000474 115.3053 244.7959 14.79933408 30421
KUIPER-00054            
1 64514U 25134Q   26002.60166541  .00006611  00000+0  89893-3 0  9997
2 64514  51.8974 150.3094 0005785  93.0270 267.1354 14.79759295 30496
KUIPER-00055            
1 64515U 25134R   26002.60407459  .00025669  00000+0  12417-2 0  9995
2 64515  51.8895 130.5832 0001876 277.0769  82.9997 15.18431327 30777
KUIPER-00056            
1 64516U 25134S   26002.73018432  .00005020  00000+0  68660-3 0  9990
2 64516  51.9030 155.8015 0001968  97.4877 262.6309 14.79956309 30434
KUIPER-00057            
1 64517U 25134T   26002.65460784  .00001514  00000+0  22768-3 0  9996
2 64517  51.8991 163.6150 0009348  62.2934 297.8976 14.79950796 30312
KUIPER-00058            
1 64518U 25134U   26002.72917025  .00005165  00000+0  70565-3 0  9994
2 64518  51.9005 157.2070 0004380 105.3623 254.7823 14.79953524 30411
KUIPER-00059            
1 64519U 25134V   26002.59953146  .00006842  00000+0  92477-3 0  9993
2 64519  51.8987 152.8343 0002023 250.7759 109.2985 14.79969135 30464
KUIPER-00060            
1 64520U 25134W   26002.59790643  .00006833  00000+0  92390-3 0  9990
2 64520  51.9018 153.8840 0002542 145.7115 214.4012 14.79956405 30433
